start=new Date('2023-06-27T00:00:00.000Z').valueOf();
sats=[{"SITE":"AFETR","PERIAPSIS":"539.162","MEAN_MOTION_DOT":"-0.00001555","SEMIMAJOR_AXIS":"6917.914","TIME_SYSTEM":"UTC","ECCENTRICITY":"0.00008910","APOAPSIS":"540.395","TLE_LINE1":"1 49731U 21115H   23177.39906269 -.00001555  00000-0 -79687-4 0  9997","REV_AT_EPOCH":"8745","OBJECT_TYPE":"PAYLOAD","LAUNCH_DATE":"2021-12-02","CENTER_NAME":"EARTH","EPHEMERIS_TYPE":"0","RCS_SIZE":"LARGE","COUNTRY_CODE":"US","GP_ID":"234565587","MEAN_MOTION_DDOT":"0.0000000000000","MEAN_ELEMENT_THEORY":"SGP4","OBJECT_ID":"2021-115H","INCLINATION":"53.2155","EPOCH":"2023-06-26T09:34:39.016416","BSTAR":"-0.00007968700000","CLASSIFICATION_TYPE":"U","RA_OF_ASC_NODE":"271.2386","TLE_LINE2":"2 49731  53.2155 271.2386 0000891  92.1738 267.9357 15.08829085 87453","FILE":"3943302","REF_FRAME":"TEME","ELEMENT_SET_NO":"999","ARG_OF_PERICENTER":"92.1738","OBJECT_NAME":"STARLINK-3228","MEAN_ANOMALY":"267.9357","NORAD_CAT_ID":"49731","DECAY_DATE":null,"PERIOD":"95.438","MEAN_MOTION":"15.08829085"},{"SITE":"AFETR","PERIAPSIS":"539.228","MEAN_MOTION_DOT":"0.00000256","SEMIMAJOR_AXIS":"6917.888","TIME_SYSTEM":"UTC","APOAPSIS":"540.278","ECCENTRICITY":"0.00007590","REV_AT_EPOCH":"8745","TLE_LINE1":"1 49732U 21115J   23177.41105522  .00000256  00000-0  34172-4 0  9999","OBJECT_TYPE":"PAYLOAD","LAUNCH_DATE":"2021-12-02","CENTER_NAME":"EARTH","EPHEMERIS_TYPE":"0","RCS_SIZE":"LARGE","COUNTRY_CODE":"US","GP_ID":"234565596","MEAN_MOTION_DDOT":"0.0000000000000","MEAN_ELEMENT_THEORY":"SGP4","OBJECT_ID":"2021-115J","INCLINATION":"53.2151","EPOCH":"2023-06-26T09:51:55.171008","BSTAR":"0.00003417200000","CLASSIFICATION_TYPE":"U","FILE":"3943350","TLE_LINE2":"2 49732  53.2151 271.1577 0000759  90.1059 270.0020 15.08837439 87452","RA_OF_ASC_NODE":"271.1577","REF_FRAME":"TEME","ARG_OF_PERICENTER":"90.1059","ELEMENT_SET_NO":"999","OBJECT_NAME":"STARLINK-3246","MEAN_ANOMALY":"270.0020","NORAD_CAT_ID":"49732","DECAY_DATE":null,"PERIOD":"95.438","MEAN_MOTION":"15.08837439"},{"APOAPSIS":"540.340","ECCENTRICITY":"0.00009460","TIME_SYSTEM":"UTC","SEMIMAJOR_AXIS":"6917.821","PERIAPSIS":"539.032","MEAN_MOTION_DOT":"0.00003639","SITE":"AFETR","CENTER_NAME":"EARTH","LAUNCH_DATE":"2021-12-02","REV_AT_EPOCH":"8745","TLE_LINE1":"1 49733U 21115K   23177.40639732  .00003639  00000-0  24648-3 0  9998","OBJECT_TYPE":"PAYLOAD","RCS_SIZE":"LARGE","COUNTRY_CODE":"US","EPHEMERIS_TYPE":"0","INCLINATION":"53.2171","OBJECT_ID":"2021-115K","MEAN_MOTION_DDOT":"0.0000000000000","MEAN_ELEMENT_THEORY":"SGP4","GP_ID":"234565707","TLE_LINE2":"2 49733  53.2171 271.2098 0000946  95.9424 264.1676 15.08859444 87452","RA_OF_ASC_NODE":"271.2098","FILE":"3943309","CLASSIFICATION_TYPE":"U","BSTAR":"0.00024648000000","EPOCH":"2023-06-26T09:45:12.728448","REF_FRAME":"TEME","DECAY_DATE":null,"NORAD_CAT_ID":"49733","MEAN_ANOMALY":"264.1676","OBJECT_NAME":"STARLINK-3252","ELEMENT_SET_NO":"999","ARG_OF_PERICENTER":"95.9424","PERIOD":"95.436","MEAN_MOTION":"15.08859444"},{"LAUNCH_DATE":"2021-12-02","CENTER_NAME":"EARTH","REV_AT_EPOCH":"8760","TLE_LINE1":"1 49734U 21115L   23177.42574263 -.00002698  00000-0 -15152-3 0  9994","OBJECT_TYPE":"PAYLOAD","APOAPSIS":"540.581","ECCENTRICITY":"0.00011540","TIME_SYSTEM":"UTC","SEMIMAJOR_AXIS":"6917.917","PERIAPSIS":"538.984","MEAN_MOTION_DOT":"-0.00002698","SITE":"AFETR","INCLINATION":"53.2159","OBJECT_ID":"2021-115L","MEAN_ELEMENT_THEORY":"SGP4","MEAN_MOTION_DDOT":"0.0000000000000","GP_ID":"234565262","RCS_SIZE":"LARGE","COUNTRY_CODE":"US","EPHEMERIS_TYPE":"0","REF_FRAME":"TEME","FILE":"3943313","TLE_LINE2":"2 49734  53.2159 261.1489 0001154  89.7236 270.3889 15.08827932 87604","RA_OF_ASC_NODE":"261.1489","CLASSIFICATION_TYPE":"U","BSTAR":"-0.00015152000000","EPOCH":"2023-06-26T10:13:04.163232","PERIOD":"95.438","MEAN_MOTION":"15.08827932","DECAY_DATE":null,"NORAD_CAT_ID":"49734","MEAN_ANOMALY":"270.3889","OBJECT_NAME":"STARLINK-3238","ELEMENT_SET_NO":"999","ARG_OF_PERICENTER":"89.7236"},{"RCS_SIZE":"LARGE","COUNTRY_CODE":"US","EPHEMERIS_TYPE":"0","INCLINATION":"53.2167","OBJECT_ID":"2021-115M","MEAN_ELEMENT_THEORY":"SGP4","MEAN_MOTION_DDOT":"0.0000000000000","GP_ID":"234567825","APOAPSIS":"540.290","ECCENTRICITY":"0.00007770","TIME_SYSTEM":"UTC","SEMIMAJOR_AXIS":"6917.888","PERIAPSIS":"539.215","MEAN_MOTION_DOT":"0.00002637","SITE":"AFETR","CENTER_NAME":"EARTH","LAUNCH_DATE":"2021-12-02","REV_AT_EPOCH":"8745","TLE_LINE1":"1 49735U 21115M   23177.40737750  .00002637  00000-0  18371-3 0  9992","OBJECT_TYPE":"PAYLOAD","DECAY_DATE":null,"MEAN_ANOMALY":"269.9867","NORAD_CAT_ID":"49735","OBJECT_NAME":"STARLINK-3113","ARG_OF_PERICENTER":"90.1214","ELEMENT_SET_NO":"999","PERIOD":"95.438","MEAN_MOTION":"15.08837524","TLE_LINE2":"2 49735  53.2167 271.1745 0000777  90.1214 269.9867 15.08837524 87453","RA_OF_ASC_NODE":"271.1745","FILE":"3943392","CLASSIFICATION_TYPE":"U","BSTAR":"0.00018371000000","EPOCH":"2023-06-26T09:46:37.416000","REF_FRAME":"TEME"},{"RCS_SIZE":"LARGE","COUNTRY_CODE":"US","EPHEMERIS_TYPE":"0","INCLINATION":"53.2161","OBJECT_ID":"2021-115N","MEAN_ELEMENT_THEORY":"SGP4","MEAN_MOTION_DDOT":"0.0000000000000","GP_ID":"234567580","APOAPSIS":"540.272","ECCENTRICITY":"0.00007320","TIME_SYSTEM":"UTC","SEMIMAJOR_AXIS":"6917.900","PERIAPSIS":"539.259","MEAN_MOTION_DOT":"-0.00000377","SITE":"AFETR","LAUNCH_DATE":"2021-12-02","CENTER_NAME":"EARTH","REV_AT_EPOCH":"8758","TLE_LINE1":"1 49736U 21115N   23177.30157923 -.00000377  00000-0 -56357-5 0  9999","OBJECT_TYPE":"PAYLOAD","DECAY_DATE":null,"MEAN_ANOMALY":"263.0748","NORAD_CAT_ID":"49736","OBJECT_NAME":"STARLINK-3148","ARG_OF_PERICENTER":"97.0328","ELEMENT_SET_NO":"999","PERIOD":"95.438","MEAN_MOTION":"15.08833473","RA_OF_ASC_NODE":"261.6872","TLE_LINE2":"2 49736  53.2161 261.6872 0000732  97.0328 263.0748 15.08833473 87582","FILE":"3943393","CLASSIFICATION_TYPE":"U","BSTAR":"-0.00000563570000","EPOCH":"2023-06-26T07:14:16.445472","REF_FRAME":"TEME"},{"REF_FRAME":"TEME","BSTAR":"0.00010627000000","EPOCH":"2023-06-25T23:10:39.643104","FILE":"3943073","TLE_LINE2":"2 49737  53.2150 263.1886 0000868  84.1729 275.9362 15.08839995 87539","RA_OF_ASC_NODE":"263.1886","CLASSIFICATION_TYPE":"U","MEAN_MOTION":"15.08839995","PERIOD":"95.438","OBJECT_NAME":"STARLINK-3225","ARG_OF_PERICENTER":"84.1729","ELEMENT_SET_NO":"999","DECAY_DATE":null,"NORAD_CAT_ID":"49737","MEAN_ANOMALY":"275.9362","CENTER_NAME":"EARTH","LAUNCH_DATE":"2021-12-02","OBJECT_TYPE":"PAYLOAD","REV_AT_EPOCH":"8753","TLE_LINE1":"1 49737U 21115P   23176.96573661  .00001404  00000-0  10627-3 0  9990","MEAN_MOTION_DOT":"0.00001404","PERIAPSIS":"539.145","SITE":"AFETR","APOAPSIS":"540.346","ECCENTRICITY":"0.00008680","SEMIMAJOR_AXIS":"6917.880","TIME_SYSTEM":"UTC","MEAN_MOTION_DDOT":"0.0000000000000","MEAN_ELEMENT_THEORY":"SGP4","GP_ID":"234559971","INCLINATION":"53.2150","OBJECT_ID":"2021-115P","EPHEMERIS_TYPE":"0","COUNTRY_CODE":"US","RCS_SIZE":"LARGE"},{"REF_FRAME":"TEME","CLASSIFICATION_TYPE":"U","FILE":"3943630","TLE_LINE2":"2 49738  53.2150 260.1811 0001087  84.5922 275.5194 15.08836017 87630","RA_OF_ASC_NODE":"260.1811","EPOCH":"2023-06-26T15:15:07.459200","BSTAR":"0.00004895300000","MEAN_MOTION":"15.08836017","PERIOD":"95.438","MEAN_ANOMALY":"275.5194","NORAD_CAT_ID":"49738","DECAY_DATE":null,"ELEMENT_SET_NO":"999","ARG_OF_PERICENTER":"84.5922","OBJECT_NAME":"STARLINK-3143","OBJECT_TYPE":"PAYLOAD","REV_AT_EPOCH":"8763","TLE_LINE1":"1 49738U 21115Q   23177.63550300  .00000491  00000-0  48953-4 0  9990","CENTER_NAME":"EARTH","LAUNCH_DATE":"2021-12-02","TIME_SYSTEM":"UTC","SEMIMAJOR_AXIS":"6917.893","APOAPSIS":"540.510","ECCENTRICITY":"0.00010870","SITE":"AFETR","MEAN_MOTION_DOT":"0.00000491","PERIAPSIS":"539.006","OBJECT_ID":"2021-115Q","INCLINATION":"53.2150","GP_ID":"234572986","MEAN_MOTION_DDOT":"0.0000000000000","MEAN_ELEMENT_THEORY":"SGP4","COUNTRY_CODE":"US","RCS_SIZE":"LARGE","EPHEMERIS_TYPE":"0"},{"MEAN_MOTION":"15.08833601","PERIOD":"95.438","DECAY_DATE":null,"MEAN_ANOMALY":"261.1022","NORAD_CAT_ID":"49739","OBJECT_NAME":"STARLINK-3155","ELEMENT_SET_NO":"999","ARG_OF_PERICENTER":"99.0083","REF_FRAME":"TEME","FILE":"3943234","TLE_LINE2":"2 49739  53.2172 271.1592 0000998  99.0083 261.1022 15.08833601 87459","RA_OF_ASC_NODE":"271.1592","CLASSIFICATION_TYPE":"U","BSTAR":"0.00004576800000","EPOCH":"2023-06-26T10:01:08.823072","INCLINATION":"53.2172","OBJECT_ID":"2021-115R","MEAN_MOTION_DDOT":"0.0000000000000","MEAN_ELEMENT_THEORY":"SGP4","GP_ID":"234563351","COUNTRY_CODE":"US","RCS_SIZE":"LARGE","EPHEMERIS_TYPE":"0","CENTER_NAME":"EARTH","LAUNCH_DATE":"2021-12-02","OBJECT_TYPE":"PAYLOAD","REV_AT_EPOCH":"8745","TLE_LINE1":"1 49739U 21115R   23177.41746323  .00000441  00000-0  45768-4 0  9995","ECCENTRICITY":"0.00009980","APOAPSIS":"540.455","TIME_SYSTEM":"UTC","SEMIMAJOR_AXIS":"6917.900","MEAN_MOTION_DOT":"0.00000441","PERIAPSIS":"539.075","SITE":"AFETR"},{"EPOCH":"2023-06-26T09:05:33.169632","BSTAR":"0.00004418700000","CLASSIFICATION_TYPE":"U","TLE_LINE2":"2 49740  53.2159 261.3049 0001038  94.8074 265.3037 15.08835395 87592","FILE":"3943382","RA_OF_ASC_NODE":"261.3049","REF_FRAME":"TEME","ELEMENT_SET_NO":"999","ARG_OF_PERICENTER":"94.8074","OBJECT_NAME":"STARLINK-3226","MEAN_ANOMALY":"265.3037","NORAD_CAT_ID":"49740","DECAY_DATE":null,"MEAN_MOTION":"15.08835395","PERIOD":"95.438","SITE":"AFETR","MEAN_MOTION_DOT":"0.00000415","PERIAPSIS":"539.041","SEMIMAJOR_AXIS":"6917.894","TIME_SYSTEM":"UTC","APOAPSIS":"540.478","ECCENTRICITY":"0.00010380","OBJECT_TYPE":"PAYLOAD","TLE_LINE1":"1 49740U 21115S   23177.37885613  .00000415  00000-0  44187-4 0  9993","REV_AT_EPOCH":"8759","CENTER_NAME":"EARTH","LAUNCH_DATE":"2021-12-02","EPHEMERIS_TYPE":"0","COUNTRY_CODE":"US","RCS_SIZE":"LARGE","GP_ID":"234567477","MEAN_MOTION_DDOT":"0.0000000000000","MEAN_ELEMENT_THEORY":"SGP4","OBJECT_ID":"2021-115S","INCLINATION":"53.2159"}];
